start=new Date('2022-11-26T00:00:00.000Z').valueOf();
sats=[{"RCS_SIZE":"LARGE","TIME_SYSTEM":"UTC","REV_AT_EPOCH":"14829","PERIOD":"95.251","MEAN_MOTION_DOT":"0.00019906","LAUNCH_DATE":"2020-03-18","REF_FRAME":"TEME","MEAN_MOTION_DDOT":"0.0000000000000","OBJECT_NAME":"STARLINK-1299","OBJECT_ID":"2020-019BL","SITE":"AFETR","EPHEMERIS_TYPE":"0","CLASSIFICATION_TYPE":"U","ARG_OF_PERICENTER":"150.4898","EPOCH":"2022-11-25T18:53:01.786272","OBJECT_TYPE":"PAYLOAD","CENTER_NAME":"EARTH","APOAPSIS":"533.375","SEMIMAJOR_AXIS":"6908.844","COUNTRY_CODE":"US","ELEMENT_SET_NO":"999","TLE_LINE2":"2 45418  52.9951 171.7090 0003860 150.4898 209.6311 15.11801312148291","TLE_LINE1":"1 45418U 20019BL  22329.78682623  .00019906  00000-0  11663-2 0  9998","FILE":"3670141","MEAN_ELEMENT_THEORY":"SGP4","BSTAR":"0.00116630000000","RA_OF_ASC_NODE":"171.7090","MEAN_ANOMALY":"209.6311","NORAD_CAT_ID":"45418","INCLINATION":"52.9951","MEAN_MOTION":"15.11801312","GP_ID":"218818565","DECAY_DATE":null,"PERIAPSIS":"528.042","ECCENTRICITY":"0.00038600"},{"RCS_SIZE":"LARGE","REV_AT_EPOCH":"14861","TIME_SYSTEM":"UTC","LAUNCH_DATE":"2020-03-18","MEAN_MOTION_DOT":"0.00001213","PERIOD":"95.593","OBJECT_NAME":"STARLINK-1308","MEAN_MOTION_DDOT":"0.0000000000000","REF_FRAME":"TEME","CLASSIFICATION_TYPE":"U","ARG_OF_PERICENTER":"95.0365","OBJECT_ID":"2020-019BM","EPHEMERIS_TYPE":"0","SITE":"AFETR","EPOCH":"2022-11-25T18:30:46.765440","OBJECT_TYPE":"PAYLOAD","CENTER_NAME":"EARTH","SEMIMAJOR_AXIS":"6925.366","APOAPSIS":"548.128","ELEMENT_SET_NO":"999","TLE_LINE2":"2 45419  53.0528 153.2664 0001295  95.0365 265.0772 15.06394305148615","TLE_LINE1":"1 45419U 20019BM  22329.77137460  .00001213  00000-0  10031-3 0  9993","COUNTRY_CODE":"US","RA_OF_ASC_NODE":"153.2664","BSTAR":"0.00010031000000","MEAN_ELEMENT_THEORY":"SGP4","FILE":"3670141","INCLINATION":"53.0528","NORAD_CAT_ID":"45419","MEAN_ANOMALY":"265.0772","MEAN_MOTION":"15.06394305","GP_ID":"218816825","DECAY_DATE":null,"ECCENTRICITY":"0.00012950","PERIAPSIS":"546.334"},{"CLASSIFICATION_TYPE":"U","ARG_OF_PERICENTER":"49.3034","OBJECT_ID":"2020-025A","SITE":"AFETR","EPHEMERIS_TYPE":"0","EPOCH":"2022-11-25T17:45:38.813184","OBJECT_TYPE":"PAYLOAD","CENTER_NAME":"EARTH","RCS_SIZE":"LARGE","REV_AT_EPOCH":"14423","TIME_SYSTEM":"UTC","MEAN_MOTION_DOT":"0.00002394","LAUNCH_DATE":"2020-04-22","PERIOD":"95.592","MEAN_MOTION_DDOT":"0.0000000000000","OBJECT_NAME":"STARLINK-1329","REF_FRAME":"TEME","NORAD_CAT_ID":"45531","INCLINATION":"53.0552","MEAN_ANOMALY":"310.8062","MEAN_MOTION":"15.06398288","GP_ID":"218817829","DECAY_DATE":null,"ECCENTRICITY":"0.00012390","PERIAPSIS":"546.361","SEMIMAJOR_AXIS":"6925.354","APOAPSIS":"548.077","TLE_LINE2":"2 45531  53.0552  93.4089 0001239  49.3034 310.8062 15.06398288144235","ELEMENT_SET_NO":"999","TLE_LINE1":"1 45531U 20025A   22329.74003256  .00002394  00000-0  17955-3 0  9990","COUNTRY_CODE":"US","BSTAR":"0.00017955000000","RA_OF_ASC_NODE":"93.4089","MEAN_ELEMENT_THEORY":"SGP4","FILE":"3670141"},{"ECCENTRICITY":"0.00014020","PERIAPSIS":"546.246","GP_ID":"218818077","DECAY_DATE":null,"MEAN_MOTION":"15.06398740","INCLINATION":"53.0562","NORAD_CAT_ID":"45532","MEAN_ANOMALY":"273.2161","RA_OF_ASC_NODE":"93.3660","BSTAR":"0.00002999100000","MEAN_ELEMENT_THEORY":"SGP4","FILE":"3670141","TLE_LINE2":"2 45532  53.0562  93.3660 0001402  86.8989 273.2161 15.06398740144233","ELEMENT_SET_NO":"999","TLE_LINE1":"1 45532U 20025B   22329.75109276  .00000165  00000-0  29991-4 0  9999","COUNTRY_CODE":"US","SEMIMAJOR_AXIS":"6925.352","APOAPSIS":"548.188","CENTER_NAME":"EARTH","EPOCH":"2022-11-25T18:01:34.414464","OBJECT_TYPE":"PAYLOAD","CLASSIFICATION_TYPE":"U","ARG_OF_PERICENTER":"86.8989","OBJECT_ID":"2020-025B","SITE":"AFETR","EPHEMERIS_TYPE":"0","OBJECT_NAME":"STARLINK-1338","MEAN_MOTION_DDOT":"0.0000000000000","REF_FRAME":"TEME","LAUNCH_DATE":"2020-04-22","MEAN_MOTION_DOT":"0.00000165","PERIOD":"95.592","REV_AT_EPOCH":"14423","TIME_SYSTEM":"UTC","RCS_SIZE":"LARGE"},{"APOAPSIS":"548.286","SEMIMAJOR_AXIS":"6925.332","FILE":"3670141","MEAN_ELEMENT_THEORY":"SGP4","BSTAR":"0.00008013700000","RA_OF_ASC_NODE":"93.8938","COUNTRY_CODE":"US","TLE_LINE2":"2 45534  53.0561  93.8938 0001573  49.2847 310.8278 15.06405455144219","ELEMENT_SET_NO":"999","TLE_LINE1":"1 45534U 20025D   22329.62944968  .00000912  00000-0  80137-4 0  9991","MEAN_MOTION":"15.06405455","MEAN_ANOMALY":"310.8278","NORAD_CAT_ID":"45534","INCLINATION":"53.0561","PERIAPSIS":"546.107","ECCENTRICITY":"0.00015730","GP_ID":"218817336","DECAY_DATE":null,"TIME_SYSTEM":"UTC","REV_AT_EPOCH":"14421","RCS_SIZE":"LARGE","REF_FRAME":"TEME","MEAN_MOTION_DDOT":"0.0000000000000","OBJECT_NAME":"STARLINK-1341","PERIOD":"95.592","LAUNCH_DATE":"2020-04-22","MEAN_MOTION_DOT":"0.00000912","EPOCH":"2022-11-25T15:06:24.452352","OBJECT_TYPE":"PAYLOAD","OBJECT_ID":"2020-025D","SITE":"AFETR","EPHEMERIS_TYPE":"0","CLASSIFICATION_TYPE":"U","ARG_OF_PERICENTER":"49.2847","CENTER_NAME":"EARTH"},{"CENTER_NAME":"EARTH","ARG_OF_PERICENTER":"92.5410","CLASSIFICATION_TYPE":"U","SITE":"AFETR","EPHEMERIS_TYPE":"0","OBJECT_ID":"2020-025E","OBJECT_TYPE":"PAYLOAD","EPOCH":"2022-11-25T18:44:02.206176","MEAN_MOTION_DOT":"0.00001205","LAUNCH_DATE":"2020-04-22","PERIOD":"95.592","MEAN_MOTION_DDOT":"0.0000000000000","OBJECT_NAME":"STARLINK-1350","REF_FRAME":"TEME","RCS_SIZE":"LARGE","REV_AT_EPOCH":"14424","TIME_SYSTEM":"UTC","DECAY_DATE":null,"GP_ID":"218817586","ECCENTRICITY":"0.00010980","PERIAPSIS":"546.460","NORAD_CAT_ID":"45535","INCLINATION":"53.0556","MEAN_ANOMALY":"267.5704","MEAN_MOTION":"15.06397812","TLE_LINE2":"2 45535  53.0556  93.2221 0001098  92.5410 267.5704 15.06397812144244","TLE_LINE1":"1 45535U 20025E   22329.78058109  .00001205  00000-0  99787-4 0  9999","ELEMENT_SET_NO":"999","COUNTRY_CODE":"US","RA_OF_ASC_NODE":"93.2221","BSTAR":"0.00009978700000","FILE":"3670141","MEAN_ELEMENT_THEORY":"SGP4","SEMIMAJOR_AXIS":"6925.355","APOAPSIS":"547.981"},{"BSTAR":"0.00009742400000","RA_OF_ASC_NODE":"93.8030","MEAN_ELEMENT_THEORY":"SGP4","FILE":"3670141","TLE_LINE2":"2 45536  53.0553  93.8030 0001435  85.0896 275.0256 15.06395679144218","TLE_LINE1":"1 45536U 20025F   22329.65157833  .00001170  00000-0  97424-4 0  9997","ELEMENT_SET_NO":"999","COUNTRY_CODE":"US","SEMIMAJOR_AXIS":"6925.362","APOAPSIS":"548.221","ECCENTRICITY":"0.00014350","PERIAPSIS":"546.233","DECAY_DATE":null,"GP_ID":"218818328","MEAN_MOTION":"15.06395679","NORAD_CAT_ID":"45536","INCLINATION":"53.0553","MEAN_ANOMALY":"275.0256","MEAN_MOTION_DDOT":"0.0000000000000","OBJECT_NAME":"STARLINK-1352","REF_FRAME":"TEME","LAUNCH_DATE":"2020-04-22","MEAN_MOTION_DOT":"0.00001170","PERIOD":"95.592","REV_AT_EPOCH":"14421","TIME_SYSTEM":"UTC","RCS_SIZE":"LARGE","CENTER_NAME":"EARTH","OBJECT_TYPE":"PAYLOAD","EPOCH":"2022-11-25T15:38:16.367712","ARG_OF_PERICENTER":"85.0896","CLASSIFICATION_TYPE":"U","SITE":"AFETR","EPHEMERIS_TYPE":"0","OBJECT_ID":"2020-025F"},{"TLE_LINE2":"2 45537  52.9741  21.8947 0005232   4.9886 355.1168 15.38652158145162","ELEMENT_SET_NO":"999","TLE_LINE1":"1 45537U 20025G   22329.41657849  .00057081  00000-0  14715-2 0  9996","COUNTRY_CODE":"US","BSTAR":"0.00147150000000","RA_OF_ASC_NODE":"21.8947","MEAN_ELEMENT_THEORY":"SGP4","FILE":"3669850","SEMIMAJOR_AXIS":"6828.231","APOAPSIS":"453.669","GP_ID":"218758139","DECAY_DATE":null,"ECCENTRICITY":"0.00052320","PERIAPSIS":"446.524","NORAD_CAT_ID":"45537","INCLINATION":"52.9741","MEAN_ANOMALY":"355.1168","MEAN_MOTION":"15.38652158","MEAN_MOTION_DOT":"0.00057081","LAUNCH_DATE":"2020-04-22","PERIOD":"93.588","OBJECT_NAME":"STARLINK-1353","MEAN_MOTION_DDOT":"0.0000000000000","REF_FRAME":"TEME","RCS_SIZE":"LARGE","REV_AT_EPOCH":"14516","TIME_SYSTEM":"UTC","CENTER_NAME":"EARTH","CLASSIFICATION_TYPE":"U","ARG_OF_PERICENTER":"4.9886","OBJECT_ID":"2020-025G","EPHEMERIS_TYPE":"0","SITE":"AFETR","EPOCH":"2022-11-25T09:59:52.381536","OBJECT_TYPE":"PAYLOAD"},{"SITE":"AFETR","EPHEMERIS_TYPE":"0","OBJECT_ID":"2020-025H","ARG_OF_PERICENTER":"67.6690","CLASSIFICATION_TYPE":"U","OBJECT_TYPE":"PAYLOAD","EPOCH":"2022-11-25T16:15:24.756768","CENTER_NAME":"EARTH","RCS_SIZE":"LARGE","TIME_SYSTEM":"UTC","REV_AT_EPOCH":"14422","PERIOD":"95.592","LAUNCH_DATE":"2020-04-22","MEAN_MOTION_DOT":"0.00002093","REF_FRAME":"TEME","MEAN_MOTION_DDOT":"0.0000000000000","OBJECT_NAME":"STARLINK-1362","MEAN_ANOMALY":"292.4460","NORAD_CAT_ID":"45538","INCLINATION":"53.0543","MEAN_MOTION":"15.06406505","DECAY_DATE":null,"GP_ID":"218816837","PERIAPSIS":"546.141","ECCENTRICITY":"0.00015200","APOAPSIS":"548.246","SEMIMAJOR_AXIS":"6925.329","COUNTRY_CODE":"US","TLE_LINE1":"1 45538U 20025H   22329.67736987  .00002093  00000-0  15931-3 0  9991","TLE_LINE2":"2 45538  53.0543  93.6880 0001520  67.6690 292.4460 15.06406505144225","ELEMENT_SET_NO":"999","MEAN_ELEMENT_THEORY":"SGP4","FILE":"3670141","RA_OF_ASC_NODE":"93.6880","BSTAR":"0.00015931000000"},{"ELEMENT_SET_NO":"999","TLE_LINE2":"2 45540  53.0553  94.0911 0001319  78.3745 281.7392 15.06388827144204","TLE_LINE1":"1 45540U 20025K   22329.58891673  .00000966  00000-0  83781-4 0  9994","COUNTRY_CODE":"US","RA_OF_ASC_NODE":"94.0911","BSTAR":"0.00008378100000","MEAN_ELEMENT_THEORY":"SGP4","FILE":"3670141","SEMIMAJOR_AXIS":"6925.383","APOAPSIS":"548.161","DECAY_DATE":null,"GP_ID":"218817087","ECCENTRICITY":"0.00013190","PERIAPSIS":"546.334","NORAD_CAT_ID":"45540","INCLINATION":"53.0553","MEAN_ANOMALY":"281.7392","MEAN_MOTION":"15.06388827","LAUNCH_DATE":"2020-04-22","MEAN_MOTION_DOT":"0.00000966","PERIOD":"95.593","OBJECT_NAME":"STARLINK-1368","MEAN_MOTION_DDOT":"0.0000000000000","REF_FRAME":"TEME","RCS_SIZE":"LARGE","REV_AT_EPOCH":"14420","TIME_SYSTEM":"UTC","CENTER_NAME":"EARTH","ARG_OF_PERICENTER":"78.3745","CLASSIFICATION_TYPE":"U","EPHEMERIS_TYPE":"0","SITE":"AFETR","OBJECT_ID":"2020-025K","OBJECT_TYPE":"PAYLOAD","EPOCH":"2022-11-25T14:08:02.405472"}];
